{"type": "FeatureCollection", "features": [ {"type": "Feature", "properties": {"norad_id": 34833, "name": "IRIDIUM 33 DEB", "group": "iridium-33-debris", "lat": -16.67364050635547, "lon": -123.45816530703304, "alt_km": 717.0232442944107, "timestamp": "2025-12-02T08:59:33.099587+00:00", "meta": {"OBJECT_NAME": "IRIDIUM 33 DEB", "OBJECT_ID": "1997-051MH", "EPOCH": "2025-12-02T05:03:01.051776", "MEAN_MOTION": 14.52266696, "ECCENTRICITY": 0.0021485, "INCLINATION": 86.3939, "RA_OF_ASC_NODE": 55.5303, "ARG_OF_PERICENTER": 130.9995, "MEAN_ANOMALY": 287.1391, "EPHEMERIS_TYPE": 0, "CLASSIFICATION_TYPE": "U", "NORAD_CAT_ID": 34833, "ELEMENT_SET_NO": 999, "REV_AT_EPOCH": 87562, "BSTAR": 0.0010041, "MEAN_MOTION_DOT": 4.11e-05, "MEAN_MOTION_DDOT": 0}, "tle": {"line1": "1 34833U 97051MH  25336.21042884  .00004110  00000+0  10041-2 0  9994", "line2": "2 34833  86.3939  55.5303 0021485 130.9995 287.1391 14.52266696875624"}}, "geometry": {"type": "Point", "coordinates": [-123.45816530703304, -16.67364050635547]}}, {"type": "Feature", "properties": {"norad_id": 34870, "name": "IRIDIUM 33 DEB", "group": "iridium-33-debris", "lat": -3.414564959782274, "lon": -41.38917551352521, "alt_km": 652.3827249166243, "timestamp": "2025-12-02T08:59:33.099602+00:00", "meta": {"OBJECT_NAME": "IRIDIUM 33 DEB", "OBJECT_ID": "1997-051MQ", "EPOCH": "2025-12-01T05:36:37.151712", "MEAN_MOTION": 14.76055324, "ECCENTRICITY": 0.0014764, "INCLINATION": 86.3102, "RA_OF_ASC_NODE": 319.3536, "ARG_OF_PERICENTER": 227.1347, "MEAN_ANOMALY": 190.7112, "EPHEMERIS_TYPE": 0, "CLASSIFICATION_TYPE": "U", "NORAD_CAT_ID": 34870, "ELEMENT_SET_NO": 999, "REV_AT_EPOCH": 88741, "BSTAR": 0.0019021, "MEAN_MOTION_DOT": 0.00013168, "MEAN_MOTION_DDOT": 0}, "tle": {"line1": "1 34870U 97051MQ  25335.23376333  .00013168  00000+0  19021-2 0  9995", "line2": "2 34870  86.3102 319.3536 0014764 227.1347 190.7112 14.76055324887418"}}, "geometry": {"type": "Point", "coordinates": [-41.38917551352521, -3.414564959782274]}}, {"type": "Feature", "properties": {"norad_id": 34896, "name": "IRIDIUM 33 DEB", "group": "iridium-33-debris", "lat": -32.68161942470386, "lon": 153.69560337357925, "alt_km": 667.252226272577, "timestamp": "2025-12-02T08:59:33.099612+00:00", "meta": {"OBJECT_NAME": "IRIDIUM 33 DEB", "OBJECT_ID": "1997-051MY", "EPOCH": "2025-11-28T17:59:37.974912", "MEAN_MOTION": 14.66055051, "ECCENTRICITY": 0.00237461, "INCLINATION": 86.3294, "RA_OF_ASC_NODE": 332.9598, "ARG_OF_PERICENTER": 266.6712, "MEAN_ANOMALY": 266.6276, "EPHEMERIS_TYPE": 0, "CLASSIFICATION_TYPE": "U", "NORAD_CAT_ID": 34896, "ELEMENT_SET_NO": 999, "REV_AT_EPOCH": 87414, "BSTAR": 0.00096599733, "MEAN_MOTION_DOT": 5.342e-05, "MEAN_MOTION_DDOT": 0}, "tle": {"line1": "1 34896U 97051MY  25332.74974508  .00005342  00000+0  96600-3 0  9998", "line2": "2 34896  86.3294 332.9598 0023746 266.6712 266.6276 14.66055051874147"}}, "geometry": {"type": "Point", "coordinates": [153.69560337357925, -32.68161942470386]}}, {"type": "Feature", "properties": {"norad_id": 34926, "name": "IRIDIUM 33 DEB", "group": "iridium-33-debris", "lat": 32.64629687663474, "lon": 15.560034968414142, "alt_km": 688.1830825934148, "timestamp": "2025-12-02T08:59:33.099623+00:00", "meta": {"OBJECT_NAME": "IRIDIUM 33 DEB", "OBJECT_ID": "1997-051NF", "EPOCH": "2025-12-02T02:22:03.194112", "MEAN_MOTION": 14.5364627, "ECCENTRICITY": 0.0077001, "INCLINATION": 86.1337, "RA_OF_ASC_NODE": 13.2046, "ARG_OF_PERICENTER": 329.0462, "MEAN_ANOMALY": 59.3492, "EPHEMERIS_TYPE": 0, "CLASSIFICATION_TYPE": "U", "NORAD_CAT_ID": 34926, "ELEMENT_SET_NO": 999, "REV_AT_EPOCH": 86302, "BSTAR": 0.0054378, "MEAN_MOTION_DOT": 0.00023732, "MEAN_MOTION_DDOT": 0}, "tle": {"line1": "1 34926U 97051NF  25336.09864808  .00023732  00000+0  54378-2 0  9993", "line2": "2 34926  86.1337  13.2046 0077001 329.0462  59.3492 14.53646270863020"}}, "geometry": {"type": "Point", "coordinates": [15.560034968414142, 32.64629687663474]}}, {"type": "Feature", "properties": {"norad_id": 34985, "name": "IRIDIUM 33 DEB", "group": "iridium-33-debris", "lat": -66.58420372653457, "lon": -110.2702482680197, "alt_km": 745.5218838871788, "timestamp": "2025-12-02T08:59:33.099633+00:00", "meta": {"OBJECT_NAME": "IRIDIUM 33 DEB", "OBJECT_ID": "1997-051NR", "EPOCH": "2025-12-01T05:20:19.248000", "MEAN_MOTION": 14.4192555, "ECCENTRICITY": 0.0019807, "INCLINATION": 86.3697, "RA_OF_ASC_NODE": 61.7912, "ARG_OF_PERICENTER": 260.0842, "MEAN_ANOMALY": 129.3276, "EPHEMERIS_TYPE": 0, "CLASSIFICATION_TYPE": "U", "NORAD_CAT_ID": 34985, "ELEMENT_SET_NO": 999, "REV_AT_EPOCH": 87009, "BSTAR": 0.00086459, "MEAN_MOTION_DOT": 2.856e-05, "MEAN_MOTION_DDOT": 0}, "tle": {"line1": "1 34985U 97051NR  25335.22244500  .00002856  00000+0  86459-3 0  9993", "line2": "2 34985  86.3697  61.7912 0019807 260.0842 129.3276 14.41925550870093"}}, "geometry": {"type": "Point", "coordinates": [-110.2702482680197, -66.58420372653457]}}, {"type": "Feature", "properties": {"norad_id": 35051, "name": "IRIDIUM 33 DEB", "group": "iridium-33-debris", "lat": -28.74034553526564, "lon": 11.359755818902197, "alt_km": 745.9502838347826, "timestamp": "2025-12-02T08:59:33.099643+00:00", "meta": {"OBJECT_NAME": "IRIDIUM 33 DEB", "OBJECT_ID": "1997-051NX", "EPOCH": "2025-12-01T09:53:54.581856", "MEAN_MOTION": 14.47515304, "ECCENTRICITY": 0.00104451, "INCLINATION": 86.3252, "RA_OF_ASC_NODE": 13.7986, "ARG_OF_PERICENTER": 121.6547, "MEAN_ANOMALY": 238.5677, "EPHEMERIS_TYPE": 0, "CLASSIFICATION_TYPE": "U", "NORAD_CAT_ID": 35051, "ELEMENT_SET_NO": 999, "REV_AT_EPOCH": 86832, "BSTAR": 0.00073041402, "MEAN_MOTION_DOT": 2.705e-05, "MEAN_MOTION_DDOT": 0}, "tle": {"line1": "1 35051U 97051NX  25335.41243729  .00002705  00000+0  73041-3 0  9997", "line2": "2 35051  86.3252  13.7986 0010445 121.6547 238.5677 14.47515304868325"}}, "geometry": {"type": "Point", "coordinates": [11.359755818902197, -28.74034553526564]}}, {"type": "Feature", "properties": {"norad_id": 35052, "name": "IRIDIUM 33 DEB", "group": "iridium-33-debris", "lat": 80.51982375278763, "lon": -177.67136774289932, "alt_km": 746.9089302477059, "timestamp": "2025-12-02T08:59:33.099653+00:00", "meta": {"OBJECT_NAME": "IRIDIUM 33 DEB", "OBJECT_ID": "1997-051NY", "EPOCH": "2025-12-01T20:50:57.172128", "MEAN_MOTION": 14.38471357, "ECCENTRICITY": 0.0013511, "INCLINATION": 86.332, "RA_OF_ASC_NODE": 25.1363, "ARG_OF_PERICENTER": 115.3752, "MEAN_ANOMALY": 244.8847, "EPHEMERIS_TYPE": 0, "CLASSIFICATION_TYPE": "U", "NORAD_CAT_ID": 35052, "ELEMENT_SET_NO": 999, "REV_AT_EPOCH": 87119, "BSTAR": 0.00022806, "MEAN_MOTION_DOT": 7.16e-06, "MEAN_MOTION_DDOT": 0}, "tle": {"line1": "1 35052U 97051NY  25335.86871727  .00000716  00000+0  22806-3 0  9995", "line2": "2 35052  86.3320  25.1363 0013511 115.3752 244.8847 14.38471357871190"}}, "geometry": {"type": "Point", "coordinates": [-177.67136774289932, 80.51982375278763]}}, {"type": "Feature", "properties": {"norad_id": 35080, "name": "IRIDIUM 33 DEB", "group": "iridium-33-debris", "lat": -19.71891514532138, "lon": 55.95828885085331, "alt_km": 648.4968748824731, "timestamp": "2025-12-02T08:59:33.099664+00:00", "meta": {"OBJECT_NAME": "IRIDIUM 33 DEB", "OBJECT_ID": "1997-051PF", "EPOCH": "2025-12-01T23:22:16.261248", "MEAN_MOTION": 14.83809313, "ECCENTRICITY": 0.0064247, "INCLINATION": 86.2057, "RA_OF_ASC_NODE": 57.5123, "ARG_OF_PERICENTER": 215.9752, "MEAN_ANOMALY": 143.7139, "EPHEMERIS_TYPE": 0, "CLASSIFICATION_TYPE": "U", "NORAD_CAT_ID": 35080, "ELEMENT_SET_NO": 999, "REV_AT_EPOCH": 69528, "BSTAR": 0.0089496, "MEAN_MOTION_DOT": 0.00077648, "MEAN_MOTION_DDOT": 0}, "tle": {"line1": "1 35080U 97051PF  25335.97379932  .00077648  00000+0  89496-2 0  9994", "line2": "2 35080  86.2057  57.5123 0064247 215.9752 143.7139 14.83809313695281"}}, "geometry": {"type": "Point", "coordinates": [55.95828885085331, -19.71891514532138]}}, {"type": "Feature", "properties": {"norad_id": 35297, "name": "IRIDIUM 33 DEB", "group": "iridium-33-debris", "lat": 61.453356300251585, "lon": -119.48925829157535, "alt_km": 729.1277233217752, "timestamp": "2025-12-02T08:59:33.099674+00:00", "meta": {"OBJECT_NAME": "IRIDIUM 33 DEB", "OBJECT_ID": "1997-051PM", "EPOCH": "2025-11-28T13:02:32.385696", "MEAN_MOTION": 14.4505178, "ECCENTRICITY": 0.00162447, "INCLINATION": 86.3859, "RA_OF_ASC_NODE": 68.817, "ARG_OF_PERICENTER": 185.2069, "MEAN_ANOMALY": 174.8967, "EPHEMERIS_TYPE": 0, "CLASSIFICATION_TYPE": "U", "NORAD_CAT_ID": 35297, "ELEMENT_SET_NO": 999, "REV_AT_EPOCH": 70221, "BSTAR": 0.00072341306, "MEAN_MOTION_DOT": 2.549e-05, "MEAN_MOTION_DDOT": 0}, "tle": {"line1": "1 35297U 97051PM  25332.54343039  .00002549  00000+0  72341-3 0  9993", "line2": "2 35297  86.3859  68.8170 0016244 185.2069 174.8967 14.45051780702214"}}, "geometry": {"type": "Point", "coordinates": [-119.48925829157535, 61.453356300251585]}}, {"type": "Feature", "properties": {"norad_id": 35299, "name": "IRIDIUM 33 DEB", "group": "iridium-33-debris", "lat": -32.12023819201441, "lon": -139.96752407901425, "alt_km": 752.2762891295415, "timestamp": "2025-12-02T08:59:33.099687+00:00", "meta": {"OBJECT_NAME": "IRIDIUM 33 DEB", "OBJECT_ID": "1997-051PP", "EPOCH": "2025-12-01T22:35:01.204224", "MEAN_MOTION": 14.40770898, "ECCENTRICITY": 0.005859, "INCLINATION": 86.2895, "RA_OF_ASC_NODE": 37.8863, "ARG_OF_PERICENTER": 136.7953, "MEAN_ANOMALY": 346.55, "EPHEMERIS_TYPE": 0, "CLASSIFICATION_TYPE": "U", "NORAD_CAT_ID": 35299, "ELEMENT_SET_NO": 999, "REV_AT_EPOCH": 86175, "BSTAR": 0.00094919, "MEAN_MOTION_DOT": 3.118e-05, "MEAN_MOTION_DDOT": 0}, "tle": {"line1": "1 35299U 97051PP  25335.94098616  .00003118  00000+0  94919-3 0  9998", "line2": "2 35299  86.2895  37.8863 0058590 136.7953 346.5500 14.40770898861752"}}, "geometry": {"type": "Point", "coordinates": [-139.96752407901425, -32.12023819201441]}}]}